[{"OBJECT_NAME":"STARLINK-5758","OBJECT_ID":"2023-042BD","EPOCH":"2026-03-09T22:00:01.999584","MEAN_MOTION":15.13114236,"ECCENTRICITY":4.716e-5,"INCLINATION":43.0012,"RA_OF_ASC_NODE":28.418,"ARG_OF_PERICENTER":279.7474,"MEAN_ANOMALY":275.8474,"EPHEMERIS_TYPE":0,"CLASSIFICATION_TYPE":"U","NORAD_CAT_ID":56037,"ELEMENT_SET_NO":999,"REV_AT_EPOCH":573,"BSTAR":0.0040469381,"MEAN_MOTION_DOT":0.00073478,"MEAN_MOTION_DDOT":0},{"OBJECT_NAME":"GEESAT-4 05","OBJECT_ID":"2025-170E","EPOCH":"2026-03-09T22:10:53.623200","MEAN_MOTION":15.15083101,"ECCENTRICITY":0.00102728,"INCLINATION":50.0002,"RA_OF_ASC_NODE":229.6714,"ARG_OF_PERICENTER":163.1129,"MEAN_ANOMALY":197.0167,"EPHEMERIS_TYPE":0,"CLASSIFICATION_TYPE":"U","NORAD_CAT_ID":65123,"ELEMENT_SET_NO":999,"REV_AT_EPOCH":3229,"BSTAR":0.00052791785,"MEAN_MOTION_DOT":9.735e-5,"MEAN_MOTION_DDOT":0}]
